NORAD_CAT_ID,OBJECT_NAME,OBJECT_TYPE,EPOCH,MEAN_MOTION,ECCENTRICITY,INCLINATION,RA_OF_ASC_NODE,ARG_OF_PERICENTER,MEAN_ANOMALY,BSTAR,MEAN_MOTION_DOT,MEAN_MOTION_DDOT,TLE_LINE0,TLE_LINE1,TLE_LINE2,SEMIMAJOR_AXIS,PERIOD,APOGEE,PERIGEE,DECAYED
52115.0,STARLINK-3685,PAYLOAD,2022-07-17 14:00:01,15.0886238,0.0001571,53.2152,294.6727,53.657,4.8775,-0.0029784,-0.00047407,0.0,0 STARLINK-3685,1 52115U 22029AD  22198.58334491 -.00047407  00000-0 -29784-2 0  9994,2 52115  53.2152 294.6727 0001571  53.6570   4.8775 15.08862380 19834,6917.812,95.436,540.764,538.59,0.0
52115.0,STARLINK-3685,PAYLOAD,2022-07-17 22:00:00,15.08839653,0.0001567,53.216,293.1794,53.7956,16.3386,-0.0032878,-0.00052234,0.0,0 STARLINK-3685,1 52115U 22029AD  22198.91667824 -.00052234  00000-0 -32878-2 0  9992,2 52115  53.2160 293.1794 0001567  53.7956  16.3386 15.08839653  1301,6917.880999999999,95.438,540.83,538.6619999999998,0.0
52115.0,STARLINK-3685,PAYLOAD,2022-07-18 14:00:01,15.08811989,0.0001691,53.2165,290.1835,58.0322,35.2298,0.00052886,8.132e-05,0.0,0 STARLINK-3685,1 52115U 22029AD  22199.58334491  .00008132  00000-0  52886-3 0  9995,2 52115  53.2165 290.1835 0001691  58.0322  35.2298 15.08811989 19989,6917.965999999999,95.439,541.001,538.661,0.0
52115.0,STARLINK-3685,PAYLOAD,2022-07-18 22:00:00,15.08837646,0.0001618,53.2161,288.6861,58.4955,46.3286,-0.0015408,-0.00024725,0.0,0 STARLINK-3685,1 52115U 22029AD  22199.91667824 -.00024725  00000-0 -15408-2 0  9997,2 52115  53.2161 288.6861 0001618  58.4955  46.3286 15.08837646  1306,6917.888000000001,95.438,540.872,538.633,0.0
52115.0,STARLINK-3685,PAYLOAD,2022-07-19 06:00:00,15.08815128,0.0001493,53.2167,287.1931,66.1661,50.2575,0.0058165,0.00093447,0.0,0 STARLINK-3685,1 52115U 22029AD  22200.25001157  .00093447  00000-0  58165-2 0  9990,2 52115  53.2167 287.1931 0001493  66.1661  50.2575 15.08815128 20087,6917.956,95.439,540.854,538.789,0.0
52115.0,STARLINK-3685,PAYLOAD,2022-07-19 14:00:01,15.08839119,0.0001698,53.2159,285.6941,56.5178,71.5047,0.0012103,0.00019026,0.0,0 STARLINK-3685,1 52115U 22029AD  22200.58334491  .00019026  00000-0  12103-2 0  9999,2 52115  53.2159 285.6941 0001698  56.5178  71.5047 15.08839119 20137,6917.8830000000025,95.438,540.923,538.573,0.0
52115.0,STARLINK-3685,PAYLOAD,2022-07-19 22:00:00,15.08854601,0.0001636,53.2165,284.202,55.8079,83.8113,-0.00023575,-4.04e-05,0.0,0 STARLINK-3685,1 52115U 22029AD  22200.91667824 -.00004040  00000-0 -23575-3 0  9993,2 52115  53.2165 284.2020 0001636  55.8079  83.8113 15.08854601  1302,6917.8359999999975,95.437,540.8330000000002,538.569,0.0
52115.0,STARLINK-3685,PAYLOAD,2022-07-20 14:00:01,15.08862664,0.0001644,53.216,281.2045,52.2378,110.6392,-0.0011754,-0.00018957,0.0,0 STARLINK-3685,1 52115U 22029AD  22201.58334491 -.00018957  00000-0 -11754-2 0  9995,2 52115  53.2160 281.2045 0001644  52.2378 110.6392 15.08862664  1309,6917.811,95.436,540.813,538.539,0.0
52115.0,STARLINK-3685,PAYLOAD,2022-07-20 22:00:01,15.08856019,0.0001551999999999,53.216,279.7066,53.99800000000001,120.5539,-0.0049,-0.00077468,0.0,0 STARLINK-3685,1 52115U 22029AD  22201.91668981 -.00077468  00000-0 -49000-2 0  9993,2 52115  53.2160 279.7066 0001552  53.9980 120.5539 15.08856019 20333,6917.831,95.437,540.77,538.623,0.0
52115.0,STARLINK-3685,PAYLOAD,2022-07-21 08:00:01,15.0882369,0.0001638,53.2163,277.8362,58.3386,220.6102,-0.0009017999999999,-0.00014605,0.0,0 STARLINK-3685,1 52115U 22029AD  22202.33334491 -.00014605  00000-0 -90180-3 0  9996,2 52115  53.2163 277.8362 0001638  58.3386 220.6102 15.08823690 20391,6917.93,95.439,540.928,538.6619999999998,0.0
52115.0,STARLINK-3685,PAYLOAD,2022-07-21 14:00:01,15.08827098,0.0001647,53.2169,276.7217,53.1171,144.6029,-0.0012439,-0.00020023,0.0,0 STARLINK-3685,1 52115U 22029AD  22202.58335648 -.00020023  00000-0 -12439-2 0  9999,2 52115  53.2169 276.7217 0001647  53.1171 144.6029 15.08827098 20433,6917.92,95.438,540.924,538.645,0.0
52115.0,STARLINK-3685,PAYLOAD,2022-07-21 22:00:00,15.08849835,0.0001585,53.2165,275.2173,53.0946,156.1491,-0.0010699,-0.0001728,0.0,0 STARLINK-3685,1 52115U 22029AD  22202.91667824 -.00017280  00000-0 -10699-2 0  9997,2 52115  53.2165 275.2173 0001585  53.0946 156.1491 15.08849835 20483,6917.85,95.437,540.812,538.619,0.0
52115.0,STARLINK-3685,PAYLOAD,2022-07-22 06:00:00,15.08869195,0.0001629999999999,53.2169,273.7207,58.7307,162.1092,-0.0023719,-0.00037869,0.0,0 STARLINK-3685,1 52115U 22029AD  22203.25001157 -.00037869  00000-0 -23719-2 0  9998,2 52115  53.2169 273.7207 0001630  58.7307 162.1092 15.08869195  1307,6917.791,95.436,540.784,538.529,0.0
52115.0,STARLINK-3685,PAYLOAD,2022-07-22 22:00:00,15.08848695,0.0001719,53.2169,270.728,55.7377,188.3083,-0.00083133,-0.00013498,0.0,0 STARLINK-3685,1 52115U 22029AD  22203.91667824 -.00013498  00000-0 -83133-3 0  9999,2 52115  53.2169 270.7280 0001719  55.7377 188.3083 15.08848695  1309,6917.854,95.437,540.908,538.53,0.0
52115.0,STARLINK-3685,PAYLOAD,2022-07-23 14:00:01,15.08802752,0.0001938,53.217,267.7368,54.4679,212.8289,0.0025794,0.0004096,0.0,0 STARLINK-3685,1 52115U 22029AD  22204.58335648  .00040960  00000-0  25794-2 0  9999,2 52115  53.2170 267.7368 0001938  54.4679 212.8289 15.08802752  1303,6917.994000000002,95.44,541.2,538.519,0.0
52115.0,STARLINK-3685,PAYLOAD,2022-07-23 22:00:00,15.08834111,0.0001776,53.2169,266.23900000000003,58.4445,220.3658,-0.00018307,-3.2e-05,0.0,0 STARLINK-3685,1 52115U 22029AD  22204.91667824 -.00003200  00000-0 -18307-3 0  9991,2 52115  53.2169 266.2390 0001776  58.4445 220.3658 15.08834111  1303,6917.898,95.438,540.992,538.535,0.0
52115.0,STARLINK-3685,PAYLOAD,2022-07-24 14:00:01,15.088262900000002,0.0001865,53.2166,263.2481,54.6377,247.3503,0.0011558,0.00018148,0.0,0 STARLINK-3685,1 52115U 22029AD  22205.58334491  .00018148  00000-0  11558-2 0  9991,2 52115  53.2166 263.2481 0001865  54.6377 247.3503 15.08826290  1306,6917.922,95.438,541.077,538.497,0.0
52115.0,STARLINK-3685,PAYLOAD,2022-07-24 22:00:00,15.08820468,0.0001668,53.2165,261.7502,58.3283,255.253,-0.0006676,-0.00010892,0.0,0 STARLINK-3685,1 52115U 22029AD  22205.91667824 -.00010892  00000-0 -66760-3 0  9993,2 52115  53.2165 261.7502 0001668  58.3283 255.2530 15.08820468  1309,6917.94,95.439,540.9590000000002,538.651,0.0
52115.0,STARLINK-3685,PAYLOAD,2022-07-25 14:00:01,15.08800106,0.0001788,53.216,258.7594,53.7168,283.0068,0.0026465,0.00042037,0.0,0 STARLINK-3685,1 52115U 22029AD  22206.58334491  .00042037  00000-0  26465-2 0  9999,2 52115  53.2160 258.7594 0001788  53.7168 283.0068 15.08800106  1307,6918.002,95.44,541.104,538.63,0.0
52115.0,STARLINK-3685,PAYLOAD,2022-07-25 22:00:00,15.08814275,0.0001648,53.2157,257.2614,59.0586,289.2339,0.00064951,0.00010057,0.0,0 STARLINK-3685,1 52115U 22029AD  22206.91667824  .00010057  00000-0  64951-3 0  9995,2 52115  53.2157 257.2614 0001648  59.0586 289.2339 15.08814275  1309,6917.959,95.439,540.964,538.684,0.0
52115.0,STARLINK-3685,PAYLOAD,2022-07-26 06:00:00,15.08841262,0.0001686,53.2157,255.7656,60.3633,299.4911,-0.0016362,-0.00026235,0.0,0 STARLINK-3685,1 52115U 22029AD  22207.25001157 -.00026235  00000-0 -16362-2 0  9993,2 52115  53.2157 255.7656 0001686  60.3633 299.4911 15.08841262 21147,6917.877,95.437,540.908,538.575,0.0
52115.0,STARLINK-3685,PAYLOAD,2022-07-26 14:00:01,15.08805658,0.00018,53.2153,254.2706,53.7126,317.731,0.0026252,0.000417,0.0,0 STARLINK-3685,1 52115U 22029AD  22207.58334491  .00041700  00000-0  26252-2 0  9990,2 52115  53.2153 254.2706 0001800  53.7126 317.7310 15.08805658  1306,6917.985,95.44,541.096,538.605,0.0
52115.0,STARLINK-3685,PAYLOAD,2022-07-26 22:00:00,15.08816013,0.0001671,53.2151,252.7725,59.2354,323.7867,0.0011790999999999,0.00018515,0.0,0 STARLINK-3685,1 52115U 22029AD  22207.91667824  .00018515  00000-0  11791-2 0  9996,2 52115  53.2151 252.7725 0001671  59.2354 323.7867 15.08816013 21244,6917.954000000002,95.439,540.975,538.663,0.0
52115.0,STARLINK-3685,PAYLOAD,2022-07-27 14:00:01,15.08812842,0.000185,53.2154,249.7815,52.8575,353.329,0.002571,0.00040837,0.0,0 STARLINK-3685,1 52115U 22029AD  22208.58334491  .00040837  00000-0  25710-2 0  9999,2 52115  53.2154 249.7815 0001850  52.8575 353.3290 15.08812842  1306,6917.9630000000025,95.439,541.1080000000002,538.549,0.0
52115.0,STARLINK-3685,PAYLOAD,2022-07-27 22:00:00,15.08819522,0.0001718,53.2161,248.2833,58.4331,359.3419,0.0016339,0.00025797,0.0,0 STARLINK-3685,1 52115U 22029AD  22208.91667824  .00025797  00000-0  16339-2 0  9990,2 52115  53.2161 248.2833 0001718  58.4331 359.3419 15.08819522 21395,6917.943,95.439,540.996,538.619,0.0
52115.0,STARLINK-3685,PAYLOAD,2022-07-28 14:00:01,15.08837641,0.0001794,53.2173,245.3018,64.2212,16.8415,-0.00011428,-2.106e-05,0.0,0 STARLINK-3685,1 52115U 22029AD  22209.58334491 -.00002106  00000-0 -11428-3 0  9991,2 52115  53.2173 245.3018 0001794  64.2212  16.8415 15.08837641  1300,6917.888000000001,95.438,540.994,538.512,0.0
52115.0,STARLINK-3685,PAYLOAD,2022-07-28 22:00:00,15.08835609,0.0001716,53.2174,243.8043,67.0618,25.5942,0.00011612,1.56e-05,0.0,0 STARLINK-3685,1 52115U 22029AD  22209.91667824  .00001560  00000-0  11612-3 0  9993,2 52115  53.2174 243.8043 0001716  67.0618  25.5942 15.08835609  1301,6917.894,95.438,540.946,538.572,0.0
52115.0,STARLINK-3685,PAYLOAD,2022-07-29 06:00:00,15.08864169,0.0001909,53.2169,242.2985,57.6383,46.5072,-0.0019701,-0.00031527,0.0,0 STARLINK-3685,1 52115U 22029AD  22210.25001157 -.00031527  00000-0 -19701-2 0  9997,2 52115  53.2169 242.2985 0001909  57.6383  46.5072 15.08864169 21594,6917.807,95.436,540.992,538.351,0.0
52115.0,STARLINK-3685,PAYLOAD,2022-07-29 14:00:01,15.08834623,0.0001995,53.2167,240.803,52.0231,63.7332,0.0019805,0.00031368,0.0,0 STARLINK-3685,1 52115U 22029AD  22210.58334491  .00031368  00000-0  19805-2 0  9999,2 52115  53.2167 240.8030 0001995  52.0231  63.7332 15.08834623  1302,6917.897,95.438,541.1419999999998,538.382,0.0
